{"type": "FeatureCollection", "features": [ {"type": "Feature", "properties": {"norad_id": 35022, "name": "COSMOS 2251 DEB", "group": "cosmos-2251-debris", "lat": -67.9672481947804, "lon": 178.12169596157605, "alt_km": 704.5683806286906, "timestamp": "2025-12-17T09:00:17.543641+00:00", "meta": {"OBJECT_NAME": "COSMOS 2251 DEB", "OBJECT_ID": "1993-036AGK", "EPOCH": "2025-12-15T14:45:27.251136", "MEAN_MOTION": 14.60846809, "ECCENTRICITY": 0.00465822, "INCLINATION": 74.027, "RA_OF_ASC_NODE": 316.4327, "ARG_OF_PERICENTER": 155.4398, "MEAN_ANOMALY": 204.9001, "EPHEMERIS_TYPE": 0, "CLASSIFICATION_TYPE": "U", "NORAD_CAT_ID": 35022, "ELEMENT_SET_NO": 999, "REV_AT_EPOCH": 59185, "BSTAR": 0.00033959453, "MEAN_MOTION_DOT": 1.655e-05, "MEAN_MOTION_DDOT": 0}, "tle": {"line1": "1 35022U 93036AGK 25349.61489874  .00001655  00000+0  33959-3 0  9991", "line2": "2 35022  74.0270 316.4327 0046582 155.4398 204.9001 14.60846809591850"}}, "geometry": {"type": "Point", "coordinates": [178.12169596157605, -67.9672481947804]}}, {"type": "Feature", "properties": {"norad_id": 35023, "name": "COSMOS 2251 DEB", "group": "cosmos-2251-debris", "lat": -70.52662304059847, "lon": 149.19018252742222, "alt_km": 565.0541412752073, "timestamp": "2025-12-17T09:00:17.543651+00:00", "meta": {"OBJECT_NAME": "COSMOS 2251 DEB", "OBJECT_ID": "1993-036AGL", "EPOCH": "2025-12-16T08:27:00.817056", "MEAN_MOTION": 14.95215262, "ECCENTRICITY": 0.00337952, "INCLINATION": 74.0372, "RA_OF_ASC_NODE": 205.3008, "ARG_OF_PERICENTER": 282.5943, "MEAN_ANOMALY": 253.8375, "EPHEMERIS_TYPE": 0, "CLASSIFICATION_TYPE": "U", "NORAD_CAT_ID": 35023, "ELEMENT_SET_NO": 999, "REV_AT_EPOCH": 88333, "BSTAR": 0.00093234373, "MEAN_MOTION_DOT": 0.00010345, "MEAN_MOTION_DDOT": 0}, "tle": {"line1": "1 35023U 93036AGL 25350.35209279  .00010345  00000+0  93234-3 0  9992", "line2": "2 35023  74.0372 205.3008 0033795 282.5943 253.8375 14.95215262883331"}}, "geometry": {"type": "Point", "coordinates": [149.19018252742222, -70.52662304059847]}}, {"type": "Feature", "properties": {"norad_id": 35025, "name": "COSMOS 2251 DEB", "group": "cosmos-2251-debris", "lat": -17.42944200895329, "lon": 48.657582124655086, "alt_km": 599.3313825746782, "timestamp": "2025-12-17T09:00:17.543661+00:00", "meta": {"OBJECT_NAME": "COSMOS 2251 DEB", "OBJECT_ID": "1993-036AGN", "EPOCH": "2025-12-16T13:31:20.600832", "MEAN_MOTION": 14.727282, "ECCENTRICITY": 0.00853469, "INCLINATION": 73.9391, "RA_OF_ASC_NODE": 55.4363, "ARG_OF_PERICENTER": 327.4377, "MEAN_ANOMALY": 32.1546, "EPHEMERIS_TYPE": 0, "CLASSIFICATION_TYPE": "U", "NORAD_CAT_ID": 35025, "ELEMENT_SET_NO": 999, "REV_AT_EPOCH": 88699, "BSTAR": 0.00029529535, "MEAN_MOTION_DOT": 1.96e-05, "MEAN_MOTION_DDOT": 0}, "tle": {"line1": "1 35025U 93036AGN 25350.56343288  .00001960  00000+0  29530-3 0  9997", "line2": "2 35025  73.9391  55.4363 0085346 327.4377  32.1546 14.72728200886998"}}, "geometry": {"type": "Point", "coordinates": [48.657582124655086, -17.42944200895329]}}, {"type": "Feature", "properties": {"norad_id": 35026, "name": "COSMOS 2251 DEB", "group": "cosmos-2251-debris", "lat": -67.0149935578216, "lon": 172.45715024357276, "alt_km": 778.0702257773255, "timestamp": "2025-12-17T09:00:17.543671+00:00", "meta": {"OBJECT_NAME": "COSMOS 2251 DEB", "OBJECT_ID": "1993-036AGP", "EPOCH": "2025-12-16T16:08:09.566880", "MEAN_MOTION": 14.53625914, "ECCENTRICITY": 0.00823829, "INCLINATION": 74.0469, "RA_OF_ASC_NODE": 311.3777, "ARG_OF_PERICENTER": 63.7165, "MEAN_ANOMALY": 113.0174, "EPHEMERIS_TYPE": 0, "CLASSIFICATION_TYPE": "U", "NORAD_CAT_ID": 35026, "ELEMENT_SET_NO": 999, "REV_AT_EPOCH": 88200, "BSTAR": 6.960493e-05, "MEAN_MOTION_DOT": 2.74e-06, "MEAN_MOTION_DDOT": 0}, "tle": {"line1": "1 35026U 93036AGP 25350.67233295  .00000274  00000+0  69605-4 0  9991", "line2": "2 35026  74.0469 311.3777 0082382  63.7165 113.0174 14.53625914882003"}}, "geometry": {"type": "Point", "coordinates": [172.45715024357276, -67.0149935578216]}}, {"type": "Feature", "properties": {"norad_id": 35028, "name": "COSMOS 2251 DEB", "group": "cosmos-2251-debris", "lat": 52.298401852233546, "lon": -76.08167636151059, "alt_km": 644.2902204901575, "timestamp": "2025-12-17T09:00:17.543682+00:00", "meta": {"OBJECT_NAME": "COSMOS 2251 DEB", "OBJECT_ID": "1993-036AGR", "EPOCH": "2025-12-16T05:25:54.829920", "MEAN_MOTION": 14.56573716, "ECCENTRICITY": 0.00825907, "INCLINATION": 74.0385, "RA_OF_ASC_NODE": 264.3643, "ARG_OF_PERICENTER": 37.0811, "MEAN_ANOMALY": 116.1856, "EPHEMERIS_TYPE": 0, "CLASSIFICATION_TYPE": "U", "NORAD_CAT_ID": 35028, "ELEMENT_SET_NO": 999, "REV_AT_EPOCH": 88336, "BSTAR": 0.0001006742, "MEAN_MOTION_DOT": 4.39e-06, "MEAN_MOTION_DDOT": 0}, "tle": {"line1": "1 35028U 93036AGR 25350.22632905  .00000439  00000+0  10067-3 0  9995", "line2": "2 35028  74.0385 264.3643 0082590  37.0811 116.1856 14.56573716883360"}}, "geometry": {"type": "Point", "coordinates": [-76.08167636151059, 52.298401852233546]}}, {"type": "Feature", "properties": {"norad_id": 35031, "name": "COSMOS 2251 DEB", "group": "cosmos-2251-debris", "lat": 20.878036268364824, "lon": -103.00869633921198, "alt_km": 753.0943194933097, "timestamp": "2025-12-17T09:00:17.543692+00:00", "meta": {"OBJECT_NAME": "COSMOS 2251 DEB", "OBJECT_ID": "1993-036AGU", "EPOCH": "2025-12-15T10:09:49.353696", "MEAN_MOTION": 14.38296815, "ECCENTRICITY": 0.00189775, "INCLINATION": 74.0382, "RA_OF_ASC_NODE": 254.3184, "ARG_OF_PERICENTER": 347.2171, "MEAN_ANOMALY": 12.8499, "EPHEMERIS_TYPE": 0, "CLASSIFICATION_TYPE": "U", "NORAD_CAT_ID": 35031, "ELEMENT_SET_NO": 999, "REV_AT_EPOCH": 65322, "BSTAR": 0.00017769599, "MEAN_MOTION_DOT": 5.15e-06, "MEAN_MOTION_DDOT": 0}, "tle": {"line1": "1 35031U 93036AGU 25349.42348789  .00000515  00000+0  17770-3 0  9996", "line2": "2 35031  74.0382 254.3184 0018977 347.2171  12.8499 14.38296815653220"}}, "geometry": {"type": "Point", "coordinates": [-103.00869633921198, 20.878036268364824]}}, {"type": "Feature", "properties": {"norad_id": 35032, "name": "COSMOS 2251 DEB", "group": "cosmos-2251-debris", "lat": -46.03968485362651, "lon": -164.16505491895055, "alt_km": 658.1154712256848, "timestamp": "2025-12-17T09:00:17.543702+00:00", "meta": {"OBJECT_NAME": "COSMOS 2251 DEB", "OBJECT_ID": "1993-036AGV", "EPOCH": "2025-12-16T11:15:20.350656", "MEAN_MOTION": 14.58756379, "ECCENTRICITY": 0.0068134, "INCLINATION": 73.8518, "RA_OF_ASC_NODE": 0.095, "ARG_OF_PERICENTER": 210.8163, "MEAN_ANOMALY": 300.2782, "EPHEMERIS_TYPE": 0, "CLASSIFICATION_TYPE": "U", "NORAD_CAT_ID": 35032, "ELEMENT_SET_NO": 999, "REV_AT_EPOCH": 87728, "BSTAR": 0.00060711838, "MEAN_MOTION_DOT": 2.896e-05, "MEAN_MOTION_DDOT": 0}, "tle": {"line1": "1 35032U 93036AGV 25350.46898554  .00002896  00000+0  60712-3 0  9991", "line2": "2 35032  73.8518   0.0950 0068134 210.8163 300.2782 14.58756379877283"}}, "geometry": {"type": "Point", "coordinates": [-164.16505491895055, -46.03968485362651]}}, {"type": "Feature", "properties": {"norad_id": 35033, "name": "COSMOS 2251 DEB", "group": "cosmos-2251-debris", "lat": 55.02380650980217, "lon": -36.31451064901537, "alt_km": 726.0309031614088, "timestamp": "2025-12-17T09:00:17.543712+00:00", "meta": {"OBJECT_NAME": "COSMOS 2251 DEB", "OBJECT_ID": "1993-036AGW", "EPOCH": "2025-12-14T19:13:10.523136", "MEAN_MOTION": 14.50941129, "ECCENTRICITY": 0.00144614, "INCLINATION": 74.0257, "RA_OF_ASC_NODE": 172.6985, "ARG_OF_PERICENTER": 279.0961, "MEAN_ANOMALY": 80.8563, "EPHEMERIS_TYPE": 0, "CLASSIFICATION_TYPE": "U", "NORAD_CAT_ID": 35033, "ELEMENT_SET_NO": 999, "REV_AT_EPOCH": 65957, "BSTAR": 0.00063074773, "MEAN_MOTION_DOT": 2.468e-05, "MEAN_MOTION_DDOT": 0}, "tle": {"line1": "1 35033U 93036AGW 25348.80081624  .00002468  00000+0  63075-3 0  9999", "line2": "2 35033  74.0257 172.6985 0014461 279.0961  80.8563 14.50941129659577"}}, "geometry": {"type": "Point", "coordinates": [-36.31451064901537, 55.02380650980217]}}, {"type": "Feature", "properties": {"norad_id": 35038, "name": "COSMOS 2251 DEB", "group": "cosmos-2251-debris", "lat": 16.792140387734044, "lon": 39.190786172782715, "alt_km": 726.1238563837824, "timestamp": "2025-12-17T09:00:17.543722+00:00", "meta": {"OBJECT_NAME": "COSMOS 2251 DEB", "OBJECT_ID": "1993-036AHB", "EPOCH": "2025-12-16T02:43:57.942048", "MEAN_MOTION": 14.25166694, "ECCENTRICITY": 0.01140711, "INCLINATION": 74.1077, "RA_OF_ASC_NODE": 36.5236, "ARG_OF_PERICENTER": 19.3791, "MEAN_ANOMALY": 9.3469, "EPHEMERIS_TYPE": 0, "CLASSIFICATION_TYPE": "U", "NORAD_CAT_ID": 35038, "ELEMENT_SET_NO": 999, "REV_AT_EPOCH": 85617, "BSTAR": 0.00096319549, "MEAN_MOTION_DOT": 2.397e-05, "MEAN_MOTION_DDOT": 0}, "tle": {"line1": "1 35038U 93036AHB 25350.11386507  .00002397  00000+0  96320-3 0  9999", "line2": "2 35038  74.1077  36.5236 0114071  19.3791   9.3469 14.25166694856178"}}, "geometry": {"type": "Point", "coordinates": [39.190786172782715, 16.792140387734044]}}, {"type": "Feature", "properties": {"norad_id": 35043, "name": "COSMOS 2251 DEB", "group": "cosmos-2251-debris", "lat": 3.6629136134938713, "lon": 37.49480875891597, "alt_km": 672.6723665370946, "timestamp": "2025-12-17T09:00:17.543732+00:00", "meta": {"OBJECT_NAME": "COSMOS 2251 DEB", "OBJECT_ID": "1993-036AHG", "EPOCH": "2025-12-15T19:36:09.229536", "MEAN_MOTION": 14.77121808, "ECCENTRICITY": 0.00962449, "INCLINATION": 73.9502, "RA_OF_ASC_NODE": 39.5099, "ARG_OF_PERICENTER": 248.3461, "MEAN_ANOMALY": 110.7443, "EPHEMERIS_TYPE": 0, "CLASSIFICATION_TYPE": "U", "NORAD_CAT_ID": 35043, "ELEMENT_SET_NO": 999, "REV_AT_EPOCH": 67464, "BSTAR": 0.0021635766, "MEAN_MOTION_DOT": 0.00016517, "MEAN_MOTION_DDOT": 0}, "tle": {"line1": "1 35043U 93036AHG 25349.81677349  .00016517  00000+0  21636-2 0  9993", "line2": "2 35043  73.9502  39.5099 0096244 248.3461 110.7443 14.77121808674647"}}, "geometry": {"type": "Point", "coordinates": [37.49480875891597, 3.6629136134938713]}}]}